{
  "type": "FeatureCollection",
  "features": [
    {
      "type": "Feature",
      "properties": {
        "norad_id": 37238,
        "name": "INTELSAT 17 (IS-17)",
        "group": "intelsat",
        "lat": -0.013924057097658536,
        "lon": -86.85852555654338,
        "alt_km": 35774.58205101308,
        "timestamp": "2025-12-03T08:58:45.666895+00:00",
        "meta_object_name": "INTELSAT 17 (IS-17)",
        "meta_object_id": "2010-065B",
        "meta_epoch": "2025-12-03T00:22:20.548704",
        "meta_mean_motion": 1.00272391,
        "meta_eccentricity": 0.0002694,
        "meta_inclination": 0.0168,
        "meta_ra_of_asc_node": 281.0388,
        "meta_arg_of_pericenter": 345.1332,
        "meta_mean_anomaly": 237.5325,
        "meta_ephemeris_type": 0,
        "meta_classification_type": "U",
        "meta_norad_cat_id": 37238,
        "meta_element_set_no": 999,
        "meta_rev_at_epoch": 5128,
        "meta_bstar": 0,
        "meta_mean_motion_dot": 1.8e-07,
        "meta_mean_motion_ddot": 0,
        "tle_line1": "1 37238U 10065B   25337.01551561  .00000018  00000+0  00000+0 0  9996",
        "tle_line2": "2 37238   0.0168 281.0388 0002694 345.1332 237.5325  1.00272391 51280"
      },
      "geometry": {
        "type": "Point",
        "coordinates": [
          -86.85852555654338,
          -0.013924057097658536
        ]
      }
    },
    {
      "type": "Feature",
      "properties": {
        "norad_id": 37392,
        "name": "INTELSAT 28 (IS-28)",
        "group": "intelsat",
        "lat": 1.2827232186575845,
        "lon": 175.3805118244657,
        "alt_km": 35783.55030580042,
        "timestamp": "2025-12-03T08:58:45.666907+00:00",
        "meta_object_name": "INTELSAT 28 (IS-28)",
        "meta_object_id": "2011-016A",
        "meta_epoch": "2025-12-03T02:21:03.347424",
        "meta_mean_motion": 1.00271336,
        "meta_eccentricity": 0.0004073,
        "meta_inclination": 1.2976,
        "meta_ra_of_asc_node": 85.1714,
        "meta_arg_of_pericenter": 171.9362,
        "meta_mean_anomaly": 178.6446,
        "meta_ephemeris_type": 0,
        "meta_classification_type": "U",
        "meta_norad_cat_id": 37392,
        "meta_element_set_no": 999,
        "meta_rev_at_epoch": 5131,
        "meta_bstar": 0,
        "meta_mean_motion_dot": -2.06e-06,
        "meta_mean_motion_ddot": 0,
        "tle_line1": "1 37392U 11016A   25337.09795541 -.00000206  00000+0  00000+0 0  9990",
        "tle_line2": "2 37392   1.2976  85.1714 0004073 171.9362 178.6446  1.00271336 51319"
      },
      "geometry": {
        "type": "Point",
        "coordinates": [
          175.3805118244657,
          1.2827232186575845
        ]
      }
    },
    {
      "type": "Feature",
      "properties": {
        "norad_id": 37834,
        "name": "INTELSAT 18 (IS-18)",
        "group": "intelsat",
        "lat": 0.024977268873285493,
        "lon": 27.145793238148435,
        "alt_km": 35792.4863341783,
        "timestamp": "2025-12-03T08:58:45.666919+00:00",
        "meta_object_name": "INTELSAT 18 (IS-18)",
        "meta_object_id": "2011-056A",
        "meta_epoch": "2025-12-02T14:38:27.602880",
        "meta_mean_motion": 1.00271068,
        "meta_eccentricity": 0.0002135,
        "meta_inclination": 0.0103,
        "meta_ra_of_asc_node": 349.7892,
        "meta_arg_of_pericenter": 263.574,
        "meta_mean_anomaly": 217.9638,
        "meta_ephemeris_type": 0,
        "meta_classification_type": "U",
        "meta_norad_cat_id": 37834,
        "meta_element_set_no": 999,
        "meta_rev_at_epoch": 5184,
        "meta_bstar": 0,
        "meta_mean_motion_dot": 7.3e-07,
        "meta_mean_motion_ddot": 0,
        "tle_line1": "1 37834U 11056A   25336.61004170  .00000073  00000+0  00000+0 0  9994",
        "tle_line2": "2 37834   0.0103 349.7892 0002135 263.5740 217.9638  1.00271068 51840"
      },
      "geometry": {
        "type": "Point",
        "coordinates": [
          27.145793238148435,
          0.024977268873285493
        ]
      }
    },
    {
      "type": "Feature",
      "properties": {
        "norad_id": 38098,
        "name": "INTELSAT 22 (IS-22)",
        "group": "intelsat",
        "lat": -0.018073649539082113,
        "lon": -80.75830249260541,
        "alt_km": 35779.61619510756,
        "timestamp": "2025-12-03T08:58:45.666932+00:00",
        "meta_object_name": "INTELSAT 22 (IS-22)",
        "meta_object_id": "2012-011A",
        "meta_epoch": "2025-12-03T00:24:05.382144",
        "meta_mean_motion": 1.00271015,
        "meta_eccentricity": 0.0001694,
        "meta_inclination": 0.0031,
        "meta_ra_of_asc_node": 359.9028,
        "meta_arg_of_pericenter": 257.9899,
        "meta_mean_anomaly": 252.3485,
        "meta_ephemeris_type": 0,
        "meta_classification_type": "U",
        "meta_norad_cat_id": 38098,
        "meta_element_set_no": 999,
        "meta_rev_at_epoch": 522,
        "meta_bstar": 0,
        "meta_mean_motion_dot": -3.9e-07,
        "meta_mean_motion_ddot": 0,
        "tle_line1": "1 38098U 12011A   25337.01672896 -.00000039  00000+0  00000+0 0  9993",
        "tle_line2": "2 38098   0.0031 359.9028 0001694 257.9899 252.3485  1.00271015  5224"
      },
      "geometry": {
        "type": "Point",
        "coordinates": [
          -80.75830249260541,
          -0.018073649539082113
        ]
      }
    },
    {
      "type": "Feature",
      "properties": {
        "norad_id": 38356,
        "name": "INTELSAT 19 (IS-19)",
        "group": "intelsat",
        "lat": 0.029711928880301407,
        "lon": 13.184795808172204,
        "alt_km": 35792.42075245663,
        "timestamp": "2025-12-03T08:58:45.666944+00:00",
        "meta_object_name": "INTELSAT 19 (IS-19)",
        "meta_object_id": "2012-030A",
        "meta_epoch": "2025-12-03T02:33:39.815712",
        "meta_mean_motion": 1.00271678,
        "meta_eccentricity": 0.0003463,
        "meta_inclination": 0.0098,
        "meta_ra_of_asc_node": 315.3096,
        "meta_arg_of_pericenter": 302.459,
        "meta_mean_anomaly": 18.8682,
        "meta_ephemeris_type": 0,
        "meta_classification_type": "U",
        "meta_norad_cat_id": 38356,
        "meta_element_set_no": 999,
        "meta_rev_at_epoch": 4848,
        "meta_bstar": 0,
        "meta_mean_motion_dot": -3.7e-07,
        "meta_mean_motion_ddot": 0,
        "tle_line1": "1 38356U 12030A   25337.10671083 -.00000037  00000+0  00000+0 0  9996",
        "tle_line2": "2 38356   0.0098 315.3096 0003463 302.4590  18.8682  1.00271678 48489"
      },
      "geometry": {
        "type": "Point",
        "coordinates": [
          13.184795808172204,
          0.029711928880301407
        ]
      }
    },
    {
      "type": "Feature",
      "properties": {
        "norad_id": 38740,
        "name": "INTELSAT 20 (IS-20)",
        "group": "intelsat",
        "lat": -0.028658719564674195,
        "lon": -84.34906298753506,
        "alt_km": 35783.15466517715,
        "timestamp": "2025-12-03T08:58:45.666956+00:00",
        "meta_object_name": "INTELSAT 20 (IS-20)",
        "meta_object_id": "2012-043A",
        "meta_epoch": "2025-12-02T22:40:15.332160",
        "meta_mean_motion": 1.00274497,
        "meta_eccentricity": 0.0003028,
        "meta_inclination": 0.0125,
        "meta_ra_of_asc_node": 336.6425,
        "meta_arg_of_pericenter": 218.4136,
        "meta_mean_anomaly": 285.5325,
        "meta_ephemeris_type": 0,
        "meta_classification_type": "U",
        "meta_norad_cat_id": 38740,
        "meta_element_set_no": 999,
        "meta_rev_at_epoch": 4878,
        "meta_bstar": 0,
        "meta_mean_motion_dot": 0,
        "meta_mean_motion_ddot": 0,
        "tle_line1": "1 38740U 12043A   25336.94462190  .00000000  00000+0  00000+0 0  9994",
        "tle_line2": "2 38740   0.0125 336.6425 0003028 218.4136 285.5325  1.00274497 48780"
      },
      "geometry": {
        "type": "Point",
        "coordinates": [
          -84.34906298753506,
          -0.028658719564674195
        ]
      }
    },
    {
      "type": "Feature",
      "properties": {
        "norad_id": 38749,
        "name": "INTELSAT 21 (IS-21)",
        "group": "intelsat",
        "lat": -0.007464079164216803,
        "lon": 149.10202639092884,
        "alt_km": 35787.625470284365,
        "timestamp": "2025-12-03T08:58:45.666968+00:00",
        "meta_object_name": "INTELSAT 21 (IS-21)",
        "meta_object_id": "2012-045A",
        "meta_epoch": "2025-12-03T03:12:21.108096",
        "meta_mean_motion": 1.00269118,
        "meta_eccentricity": 0.0002453,
        "meta_inclination": 0.0176,
        "meta_ra_of_asc_node": 321.109,
        "meta_arg_of_pericenter": 282.1674,
        "meta_mean_anomaly": 179.0426,
        "meta_ephemeris_type": 0,
        "meta_classification_type": "U",
        "meta_norad_cat_id": 38749,
        "meta_element_set_no": 999,
        "meta_rev_at_epoch": 4855,
        "meta_bstar": 0,
        "meta_mean_motion_dot": -2.66e-06,
        "meta_mean_motion_ddot": 0,
        "tle_line1": "1 38749U 12045A   25337.13357764 -.00000266  00000+0  00000+0 0  9992",
        "tle_line2": "2 38749   0.0176 321.1090 0002453 282.1674 179.0426  1.00269118 48556"
      },
      "geometry": {
        "type": "Point",
        "coordinates": [
          149.10202639092884,
          -0.007464079164216803
        ]
      }
    }
  ]
}